CCSDS_OMM_VERS = 2.0
CREATION_DATE  = 
ORIGINATOR     = 

OBJECT_NAME    = STARLINK-36874
OBJECT_ID      = 2026-038W
CENTER_NAME    = EARTH
REF_FRAME      = TEME
TIME_SYSTEM    = UTC
MEAN_ELEMENT_THEORY = SGP/SGP4

EPOCH          = 2026-03-13T22:00:01.999584
MEAN_MOTION    = 15.75061370
ECCENTRICITY   = .00009324
INCLINATION    = 97.2755
RA_OF_ASC_NODE = 83.4811
ARG_OF_PERICENTER = 68.7427
MEAN_ANOMALY   = 12.1567

EPHEMERIS_TYPE = 0
CLASSIFICATION_TYPE = U
NORAD_CAT_ID   = 67981
ELEMENT_SET_NO = 999
REV_AT_EPOCH   = 387
BSTAR          = .11174023E-2
MEAN_MOTION_DOT = .168933E-2
MEAN_MOTION_DDOT = 0

CCSDS_OMM_VERS = 2.0
CREATION_DATE  = 
ORIGINATOR     = 

OBJECT_NAME    = STARLINK-36879
OBJECT_ID      = 2026-038X
CENTER_NAME    = EARTH
REF_FRAME      = TEME
TIME_SYSTEM    = UTC
MEAN_ELEMENT_THEORY = SGP/SGP4

EPOCH          = 2026-03-13T22:00:01.999584
MEAN_MOTION    = 15.75595816
ECCENTRICITY   = .00019022
INCLINATION    = 97.2738
RA_OF_ASC_NODE = 83.4832
ARG_OF_PERICENTER = 55.0784
MEAN_ANOMALY   = 33.7649

EPHEMERIS_TYPE = 0
CLASSIFICATION_TYPE = U
NORAD_CAT_ID   = 67982
ELEMENT_SET_NO = 999
REV_AT_EPOCH   = 387
BSTAR          = -.14392237E-1
MEAN_MOTION_DOT = -.1903803E-1
MEAN_MOTION_DDOT = 0

CCSDS_OMM_VERS = 2.0
CREATION_DATE  = 
ORIGINATOR     = 

OBJECT_NAME    = STARLINK-36867
OBJECT_ID      = 2026-038Y
CENTER_NAME    = EARTH
REF_FRAME      = TEME
TIME_SYSTEM    = UTC
MEAN_ELEMENT_THEORY = SGP/SGP4

EPOCH          = 2026-03-13T22:00:01.999584
MEAN_MOTION    = 15.75342647
ECCENTRICITY   = .00011191
INCLINATION    = 97.2735
RA_OF_ASC_NODE = 83.4900
ARG_OF_PERICENTER = 101.1269
MEAN_ANOMALY   = 3.6699

EPHEMERIS_TYPE = 0
CLASSIFICATION_TYPE = U
NORAD_CAT_ID   = 67983
ELEMENT_SET_NO = 999
REV_AT_EPOCH   = 387
BSTAR          = -.17632559E-2
MEAN_MOTION_DOT = -.257068E-2
MEAN_MOTION_DDOT = 0

CCSDS_OMM_VERS = 2.0
CREATION_DATE  = 
ORIGINATOR     = 

OBJECT_NAME    = STARLINK-36266
OBJECT_ID      = 2026-038Z
CENTER_NAME    = EARTH
REF_FRAME      = TEME
TIME_SYSTEM    = UTC
MEAN_ELEMENT_THEORY = SGP/SGP4

EPOCH          = 2026-03-13T22:00:01.999584
MEAN_MOTION    = 15.75093340
ECCENTRICITY   = .00006056
INCLINATION    = 97.2733
RA_OF_ASC_NODE = 83.4868
ARG_OF_PERICENTER = 122.7130
MEAN_ANOMALY   = 334.1785

EPHEMERIS_TYPE = 0
CLASSIFICATION_TYPE = U
NORAD_CAT_ID   = 67984
ELEMENT_SET_NO = 999
REV_AT_EPOCH   = 384
BSTAR          = .58363188E-3
MEAN_MOTION_DOT = .8745E-3
MEAN_MOTION_DDOT = 0

CCSDS_OMM_VERS = 2.0
CREATION_DATE  = 
ORIGINATOR     = 

OBJECT_NAME    = STARLINK-36802
OBJECT_ID      = 2026-038AA
CENTER_NAME    = EARTH
REF_FRAME      = TEME
TIME_SYSTEM    = UTC
MEAN_ELEMENT_THEORY = SGP/SGP4

EPOCH          = 2026-03-13T22:00:01.999584
MEAN_MOTION    = 15.75446549
ECCENTRICITY   = .00011583
INCLINATION    = 97.2723
RA_OF_ASC_NODE = 83.4923
ARG_OF_PERICENTER = 79.3733
MEAN_ANOMALY   = 31.3635

EPHEMERIS_TYPE = 0
CLASSIFICATION_TYPE = U
NORAD_CAT_ID   = 67985
ELEMENT_SET_NO = 999
REV_AT_EPOCH   = 387
BSTAR          = -.26676724E-2
MEAN_MOTION_DOT = -.384899E-2
MEAN_MOTION_DDOT = 0

CCSDS_OMM_VERS = 2.0
CREATION_DATE  = 
ORIGINATOR     = 

OBJECT_NAME    = STARLINK-36535
OBJECT_ID      = 2026-039A
CENTER_NAME    = EARTH
REF_FRAME      = TEME
TIME_SYSTEM    = UTC
MEAN_ELEMENT_THEORY = SGP/SGP4

EPOCH          = 2026-03-13T21:52:50.619072
MEAN_MOTION    = 15.82397670
ECCENTRICITY   = .00025047
INCLINATION    = 42.9986
RA_OF_ASC_NODE = 29.0636
ARG_OF_PERICENTER = 237.0594
MEAN_ANOMALY   = 123.0037

EPHEMERIS_TYPE = 0
CLASSIFICATION_TYPE = U
NORAD_CAT_ID   = 67986
ELEMENT_SET_NO = 999
REV_AT_EPOCH   = 230
BSTAR          = .34666566E-2
MEAN_MOTION_DOT = .816923E-2
MEAN_MOTION_DDOT = 0

CCSDS_OMM_VERS = 2.0
CREATION_DATE  = 
ORIGINATOR     = 

OBJECT_NAME    = STARLINK-36744
OBJECT_ID      = 2026-039B
CENTER_NAME    = EARTH
REF_FRAME      = TEME
TIME_SYSTEM    = UTC
MEAN_ELEMENT_THEORY = SGP/SGP4

EPOCH          = 2026-03-13T21:51:45.851040
MEAN_MOTION    = 15.82394934
ECCENTRICITY   = .00026348
INCLINATION    = 42.9986
RA_OF_ASC_NODE = 29.0570
ARG_OF_PERICENTER = 215.8267
MEAN_ANOMALY   = 144.2428

EPHEMERIS_TYPE = 0
CLASSIFICATION_TYPE = U
NORAD_CAT_ID   = 67987
ELEMENT_SET_NO = 999
REV_AT_EPOCH   = 230
BSTAR          = .34382731E-2
MEAN_MOTION_DOT = .809399E-2
MEAN_MOTION_DDOT = 0

CCSDS_OMM_VERS = 2.0
CREATION_DATE  = 
ORIGINATOR     = 

OBJECT_NAME    = STARLINK-36734
OBJECT_ID      = 2026-039C
CENTER_NAME    = EARTH
REF_FRAME      = TEME
TIME_SYSTEM    = UTC
MEAN_ELEMENT_THEORY = SGP/SGP4

EPOCH          = 2026-03-13T22:00:01.999584
MEAN_MOTION    = 15.68108008
ECCENTRICITY   = .0001454
INCLINATION    = 42.9993
RA_OF_ASC_NODE = 29.2200
ARG_OF_PERICENTER = 251.5302
MEAN_ANOMALY   = 62.0812

EPHEMERIS_TYPE = 0
CLASSIFICATION_TYPE = U
NORAD_CAT_ID   = 67988
ELEMENT_SET_NO = 999
REV_AT_EPOCH   = 355
BSTAR          = -.19211784E-1
MEAN_MOTION_DOT = -.1945821E-1
MEAN_MOTION_DDOT = 0

CCSDS_OMM_VERS = 2.0
CREATION_DATE  = 
ORIGINATOR     = 

OBJECT_NAME    = STARLINK-36957
OBJECT_ID      = 2026-039D
CENTER_NAME    = EARTH
REF_FRAME      = TEME
TIME_SYSTEM    = UTC
MEAN_ELEMENT_THEORY = SGP/SGP4

EPOCH          = 2026-03-13T22:00:01.999584
MEAN_MOTION    = 15.81968136
ECCENTRICITY   = .00015914
INCLINATION    = 42.9992
RA_OF_ASC_NODE = 28.9998
ARG_OF_PERICENTER = 260.9114
MEAN_ANOMALY   = 140.4307

EPHEMERIS_TYPE = 0
CLASSIFICATION_TYPE = U
NORAD_CAT_ID   = 67989
ELEMENT_SET_NO = 999
REV_AT_EPOCH   = 355
BSTAR          = .30427697E-3
MEAN_MOTION_DOT = .63867E-3
MEAN_MOTION_DDOT = 0

CCSDS_OMM_VERS = 2.0
CREATION_DATE  = 
ORIGINATOR     = 

OBJECT_NAME    = STARLINK-36951
OBJECT_ID      = 2026-039E
CENTER_NAME    = EARTH
REF_FRAME      = TEME
TIME_SYSTEM    = UTC
MEAN_ELEMENT_THEORY = SGP/SGP4

EPOCH          = 2026-03-13T21:48:40.227552
MEAN_MOTION    = 15.81141750
ECCENTRICITY   = .00025699
INCLINATION    = 42.9990
RA_OF_ASC_NODE = 29.0384
ARG_OF_PERICENTER = 187.4316
MEAN_ANOMALY   = 172.6517

EPHEMERIS_TYPE = 0
CLASSIFICATION_TYPE = U
NORAD_CAT_ID   = 67990
ELEMENT_SET_NO = 999
REV_AT_EPOCH   = 230
BSTAR          = -.10415952E-2
MEAN_MOTION_DOT = -.206199E-2
MEAN_MOTION_DDOT = 0

CCSDS_OMM_VERS = 2.0
CREATION_DATE  = 
ORIGINATOR     = 

OBJECT_NAME    = STARLINK-36941
OBJECT_ID      = 2026-039F
CENTER_NAME    = EARTH
REF_FRAME      = TEME
TIME_SYSTEM    = UTC
MEAN_ELEMENT_THEORY = SGP/SGP4

EPOCH          = 2026-03-13T22:00:01.999584
MEAN_MOTION    = 15.67758113
ECCENTRICITY   = .00013257
INCLINATION    = 42.9994
RA_OF_ASC_NODE = 29.1969
ARG_OF_PERICENTER = 253.2488
MEAN_ANOMALY   = 68.9714

EPHEMERIS_TYPE = 0
CLASSIFICATION_TYPE = U
NORAD_CAT_ID   = 67991
ELEMENT_SET_NO = 999
REV_AT_EPOCH   = 355
BSTAR          = -.19442437E-1
MEAN_MOTION_DOT = -.1941351E-1
MEAN_MOTION_DDOT = 0

CCSDS_OMM_VERS = 2.0
CREATION_DATE  = 
ORIGINATOR     = 

OBJECT_NAME    = STARLINK-36950
OBJECT_ID      = 2026-039G
CENTER_NAME    = EARTH
REF_FRAME      = TEME
TIME_SYSTEM    = UTC
MEAN_ELEMENT_THEORY = SGP/SGP4

EPOCH          = 2026-03-13T22:00:01.999584
MEAN_MOTION    = 15.73255062
ECCENTRICITY   = .00013659
INCLINATION    = 42.9993
RA_OF_ASC_NODE = 29.0499
ARG_OF_PERICENTER = 263.4555
MEAN_ANOMALY   = 117.4876

EPHEMERIS_TYPE = 0
CLASSIFICATION_TYPE = U
NORAD_CAT_ID   = 67992
ELEMENT_SET_NO = 999
REV_AT_EPOCH   = 355
BSTAR          = -.15572584E-1
MEAN_MOTION_DOT = -.1960155E-1
MEAN_MOTION_DDOT = 0

