STARLINK-36874          
1 67981U 26038W   26072.91668981  .00168933  00000+0  11174-2 0  9990
2 67981  97.2755  83.4811 0000932  68.7427  12.1567 15.75061370  3876
STARLINK-36879          
1 67982U 26038X   26072.91668981 -.01903803  00000+0 -14392-1 0  9991
2 67982  97.2738  83.4832 0001902  55.0784  33.7649 15.75595816  3871
STARLINK-36867          
1 67983U 26038Y   26072.91668981 -.00257068  00000+0 -17633-2 0  9998
2 67983  97.2735  83.4900 0001119 101.1269   3.6699 15.75342647  3879
STARLINK-36266          
1 67984U 26038Z   26072.91668981  .00087450  00000+0  58363-3 0  9999
2 67984  97.2733  83.4868 0000605 122.7130 334.1785 15.75093340  3844
STARLINK-36802          
1 67985U 26038AA  26072.91668981 -.00384899  00000+0 -26677-2 0  9991
2 67985  97.2723  83.4923 0001158  79.3733  31.3635 15.75446549  3872
STARLINK-36535          
1 67986U 26039A   26072.91169698  .00816923  00000+0  34667-2 0  9998
2 67986  42.9986  29.0636 0002504 237.0594 123.0037 15.82397670  2302
STARLINK-36744          
1 67987U 26039B   26072.91094735  .00809399  00000+0  34383-2 0  9992
2 67987  42.9986  29.0570 0002634 215.8267 144.2428 15.82394934  2304
STARLINK-36734          
1 67988U 26039C   26072.91668981 -.01945821  00000+0 -19212-1 0  9990
2 67988  42.9993  29.2200 0001454 251.5302  62.0812 15.68108008  3552
STARLINK-36957          
1 67989U 26039D   26072.91668981  .00063867  00000+0  30428-3 0  9993
2 67989  42.9992  28.9998 0001591 260.9114 140.4307 15.81968136  3550
STARLINK-36951          
1 67990U 26039E   26072.90879893 -.00206199  00000+0 -10416-2 0  9993
2 67990  42.9990  29.0384 0002569 187.4316 172.6517 15.81141750  2301
STARLINK-36941          
1 67991U 26039F   26072.91668981 -.01941351  00000+0 -19442-1 0  9993
2 67991  42.9994  29.1969 0001325 253.2488  68.9714 15.67758113  3552
STARLINK-36950          
1 67992U 26039G   26072.91668981 -.01960155  00000+0 -15573-1 0  9998
2 67992  42.9993  29.0499 0001365 263.4555 117.4876 15.73255062  3552
